{"fetched_at":"2026-03-29T12:54:09Z","count":15711,"tles":[{"name":"STARLINK-1133","line1":"1 45064U 20006W   26087.73731636  .00005948  00000+0  21258-3 0  9992","line2":"2 45064  53.1608 169.3225 0001053  88.9154 271.1967 15.30229008339790","category":"Starlink"}]}